{
    "links": {
        "self": "http://www.neowsapp.com/rest/v1/neo/3370501?api_key=iIulBulltgU6a56xZRHN4H3l9WmuAYTsLGpBGhQ2"
    },
    "id": "3370501",
    "neo_reference_id": "3370501",
    "name": "(2007 EK26)",
    "designation": "2007 EK26",
    "nasa_jpl_url": "http://ssd.jpl.nasa.gov/sbdb.cgi?sstr=3370501",
    "absolute_magnitude_h": 25.0,
    "estimated_diameter": {
        "kilometers": {
            "estimated_diameter_min": 0.02658,
            "estimated_diameter_max": 0.0594346868
        },
        "meters": {
            "estimated_diameter_min": 26.58,
            "estimated_diameter_max": 59.4346868419
        },
        "miles": {
            "estimated_diameter_min": 0.0165160412,
            "estimated_diameter_max": 0.0369309908
        },
        "feet": {
            "estimated_diameter_min": 87.2047272,
            "estimated_diameter_max": 194.9956979785
        }
    },
    "is_potentially_hazardous_asteroid": false,
    "close_approach_data": [
        {
            "close_approach_date": "1920-04-02",
            "close_approach_date_full": "1920-Apr-02 20:49",
            "epoch_date_close_approach": -1569899460000,
            "relative_velocity": {
                "kilometers_per_second": "33.3049471606",
                "kilometers_per_hour": "119897.8097781434",
                "miles_per_hour": "74499.8363035359"
            },
            "miss_distance": {
                "astronomical": "0.4978902066",
                "lunar": "193.6792903674",
                "kilometers": "74483314.401219942",
                "miles": "46281785.4540095196"
            },
            "orbiting_body": "Earth"
        },
        {
            "close_approach_date": "2007-03-10",
            "close_approach_date_full": "2007-Mar-10 01:03",
            "epoch_date_close_approach": 1173488580000,
            "relative_velocity": {
                "kilometers_per_second": "18.6024655026",
                "kilometers_per_hour": "66968.8758093179",
                "miles_per_hour": "41611.8550827398"
            },
            "miss_distance": {
                "astronomical": "0.0045728504",
                "lunar": "1.7788388056",
                "kilometers": "684088.679668648",
                "miles": "425072.9946494224"
            },
            "orbiting_body": "Earth"
        },
        {
            "close_approach_date": "2007-03-10",
            "close_approach_date_full": "2007-Mar-10 03:21",
            "epoch_date_close_approach": 1173496860000,
            "relative_velocity": {
                "kilometers_per_second": "19.4968066173",
                "kilometers_per_hour": "70188.5038224157",
                "miles_per_hour": "43612.4067223227"
            },
            "miss_distance": {
                "astronomical": "0.0068067135",
                "lunar": "2.6478115515",
                "kilometers": "1018269.841300245",
                "miles": "632723.539603581"
            },
            "orbiting_body": "Moon"
        }
    ],
    "orbital_data": {
        "orbit_id": "13",
        "orbit_determination_date": "2020-05-28 06:46:24",
        "first_observation_date": "2007-03-12",
        "last_observation_date": "2007-03-16",
        "data_arc_in_days": 4,
        "observations_used": 62,
        "orbit_uncertainty": "8",
        "minimum_orbit_intersection": ".00195764",
        "jupiter_tisserand_invariant": "3.718",
        "epoch_osculation": "2454173.5",
        "eccentricity": ".6531283612566788",
        "semi_major_axis": "1.847025533449058",
        "inclination": "3.423765496988967",
        "ascending_node_longitude": "346.8379065285486",
        "orbital_period": "916.8700271116676",
        "perihelion_distance": ".6406807735882317",
        "perihelion_argument": "97.76133767096321",
        "aphelion_distance": "3.053370293309885",
        "perihelion_time": "2454122.425181850818",
        "mean_anomaly": "20.05402509625951",
        "mean_motion": ".3926401663865873",
        "equinox": "J2000",
        "orbit_class": {
            "orbit_class_type": "APO",
            "orbit_class_description": "Near-Earth asteroid orbits which cross the Earth’s orbit similar to that of 1862 Apollo",
            "orbit_class_range": "a (semi-major axis) > 1.0 AU; q (perihelion) < 1.017 AU"
        }
    },
    "is_sentry_object": false
}